
  [
    {
      "id": "180716821",
      "amenity": "wine cellar",
      "international_name": "Popova Kula",
      "name": "Попова Кула",
      "shop": "wine",
      "latitude": 22.2261756,
      "longitude": 41.4109967

    },

    {
        "id": "180725215",
        "amenity": "wine cellar",
        "international_name": "Vinarija Grkov",
        "name": "Винарија Грков",
        "shop": "wine",
        "latitude": 22.1279401,
        "longitude": 41.3157114
    },
    {

        "id": "370311640",
        "amenity": "chateau",
        "international_name": "Domaine Lepovo",
        "name": "Домаин Лепово",
        "shop": "wine",
        "latitude": 22.0341129,
        "longitude": 41.5180203



    },
    {

        "id": "476221803",
        "amenity": "wine cellar",
        "international_name": "Kamnik",
        "name": "Камник",
        "shop": "wine",
        "latitude": 21.4902127,
        "longitude": 42.0078222

    },
    {


        "id": "533757101",
        "amenity": "wine cellar",
        "international_name": "Vinarija Stobi",
        "name": "Винарија Стоби",
        "shop": "wine",
        "latitude": 21.9378856,
        "longitude": 41.5817262


    },
    {

        "id": "1221269982",
        "amenity": "winery",
        "international_name": "Zaharchev Winery and Distillery",
        "name": "Семејна винарија „Захарчев“",
        "shop":"wine",
        "latitude": 22.0048024,
        "longitude":41.4361240


    },
    {

        "id": "5167052721",
        "amenity": "",
        "international_name": "Chateau Sopot",
        "name": "Шато Сопот",
        "shop": "",
        "latitude": 21.7409905,
        "longitude": 41.7777740


    },
    {

        "id": "5667327121",
        "amenity": "",
        "international_name": "Bovin Winery",
        "name": "Бовин винарија",
        "shop": "wine",
        "latitude":  22.0915153,
        "longitude": 41.4943704


    },
    {

        "id": "5901737585",
        "amenity": "",
        "international_name": "Tikves",
        "name": "Тиквеш",
        "shop": "wine",
        "latitude":   21.4394921,
        "longitude":  41.9940075

    },

    {
        "id": "5901753385",
        "amenity": "",
        "international_name": "Skovin",
        "name": "Сковин",
        "shop": "wine",
        "latitude":  21.4368,
        "longitude":  41.9873

    },

    {
        "id": "9870303417",
        "amenity": "",
        "international_name": "Monastery Winery",
        "name": "Манастир Вино",
        "shop": "wine",
        "latitude": 20.8771330,
        "longitude":  41.1848848

    }
  ]

